[{"OBJECT_NAME":"IRIDIUM 178","OBJECT_ID":"2023-068V","EPOCH":"2026-03-09T22:29:43.646208","MEAN_MOTION":14.80237854,"ECCENTRICITY":0.00024806,"INCLINATION":86.6486,"RA_OF_ASC_NODE":66.834,"ARG_OF_PERICENTER":100.7522,"MEAN_ANOMALY":259.3979,"EPHEMERIS_TYPE":0,"CLASSIFICATION_TYPE":"U","NORAD_CAT_ID":56729,"ELEMENT_SET_NO":999,"REV_AT_EPOCH":15168,"BSTAR":8.8663606e-5,"MEAN_MOTION_DOT":7.0e-6,"MEAN_MOTION_DDOT":0},{"OBJECT_NAME":"CZ-6A DEB","OBJECT_ID":"2022-151VZ","EPOCH":"2026-03-09T16:21:33.047136","MEAN_MOTION":14.85344496,"ECCENTRICITY":0.00547112,"INCLINATION":98.6299,"RA_OF_ASC_NODE":135.7677,"ARG_OF_PERICENTER":212.8524,"MEAN_ANOMALY":146.9284,"EPHEMERIS_TYPE":0,"CLASSIFICATION_TYPE":"U","NORAD_CAT_ID":55208,"ELEMENT_SET_NO":999,"REV_AT_EPOCH":17071,"BSTAR":0.0043323,"MEAN_MOTION_DOT":0.00038405,"MEAN_MOTION_DDOT":0}]
